STARLINK-32283          
1 62425U 24249S   26068.02850013  .00043069  00000+0  15653-2 0  9994
2 62425  43.0015 314.2453 0001991 267.6192  92.4432 15.27584278 67757
FLOCK 4G-24             
1 62637U 25009AE  26068.72509072  .00010513  00000+0  38996-3 0  9991
2 62637  97.4061 151.5140 0001802 280.2808  79.8228 15.27784978 63732
