[{"OBJECT_NAME":"STARLINK-32283","OBJECT_ID":"2024-249S","EPOCH":"2026-03-09T00:41:02.411232","MEAN_MOTION":15.27584278,"ECCENTRICITY":0.00019915,"INCLINATION":43.0015,"RA_OF_ASC_NODE":314.2453,"ARG_OF_PERICENTER":267.6192,"MEAN_ANOMALY":92.4432,"EPHEMERIS_TYPE":0,"CLASSIFICATION_TYPE":"U","NORAD_CAT_ID":62425,"ELEMENT_SET_NO":999,"REV_AT_EPOCH":6775,"BSTAR":0.0015652681,"MEAN_MOTION_DOT":0.00043069,"MEAN_MOTION_DDOT":0},{"OBJECT_NAME":"FLOCK 4G-24","OBJECT_ID":"2025-009AE","EPOCH":"2026-03-09T17:24:07.838208","MEAN_MOTION":15.27784978,"ECCENTRICITY":0.0001802,"INCLINATION":97.4061,"RA_OF_ASC_NODE":151.514,"ARG_OF_PERICENTER":280.2808,"MEAN_ANOMALY":79.8228,"EPHEMERIS_TYPE":0,"CLASSIFICATION_TYPE":"U","NORAD_CAT_ID":62637,"ELEMENT_SET_NO":999,"REV_AT_EPOCH":6373,"BSTAR":0.00038996067,"MEAN_MOTION_DOT":0.00010513,"MEAN_MOTION_DDOT":0}]
